{
  "norad_id": 65361,
  "name": "STARLINK-34800",
  "history": [
    {
      "epoch": "2026-03-28T06:18:00.694656Z",
      "apogee_km": 476.09181632753916,
      "perigee_km": 474.27842729410895,
      "latitude_deg": -1.7630819175114595e-05,
      "longitude_deg": 161.37371705502852,
      "height_km": 476.116494073754,
      "semi_major_axis_km": 6853.322121810824,
      "eccentricity": 0.0001323,
      "inclination_deg": 53.1588,
      "raan_deg": 81.5621,
      "arg_perigee_deg": 92.1169,
      "mean_anomaly_deg": 267.9983,
      "mean_motion_rev_day": 15.3021003
    },
    {
      "epoch": "2026-03-29T04:14:45.456864Z",
      "apogee_km": 476.02112358002887,
      "perigee_km": 474.42154974425284,
      "latitude_deg": -5.081775806293374e-07,
      "longitude_deg": -172.96156022146587,
      "height_km": 475.91662833232544,
      "semi_major_axis_km": 6853.358336662141,
      "eccentricity": 0.0001167,
      "inclination_deg": 53.1588,
      "raan_deg": 77.3146,
      "arg_perigee_deg": 75.3076,
      "mean_anomaly_deg": 284.8054,
      "mean_motion_rev_day": 15.30197901
    },
    {
      "epoch": "2026-03-30T05:19:36.727104Z",
      "apogee_km": 476.0153302773997,
      "perigee_km": 474.4128797220292,
      "latitude_deg": -1.3879498455196342e-05,
      "longitude_deg": 164.94256818373358,
      "height_km": 475.93127688571633,
      "semi_major_axis_km": 6853.351104999714,
      "eccentricity": 0.00011691,
      "inclination_deg": 53.1596,
      "raan_deg": 72.4624,
      "arg_perigee_deg": 76.9407,
      "mean_anomaly_deg": 283.1724,
      "mean_motion_rev_day": 15.30200323
    },
    {
      "epoch": "2026-03-30T16:17:59.144928Z",
      "apogee_km": 475.9675588866039,
      "perigee_km": 474.4019860609005,
      "latitude_deg": 1.7114068337784503e-05,
      "longitude_deg": -2.22675653365546,
      "height_km": 475.9962593037093,
      "semi_major_axis_km": 6853.321772473752,
      "eccentricity": 0.00011422,
      "inclination_deg": 53.1605,
      "raan_deg": 70.3371,
      "arg_perigee_deg": 83.6315,
      "mean_anomaly_deg": 276.4816,
      "mean_motion_rev_day": 15.30210147
    },
    {
      "epoch": "2026-03-31T15:48:47.509344Z",
      "apogee_km": 476.3130710514888,
      "perigee_km": 474.0514756912762,
      "latitude_deg": -1.8865969076905188e-05,
      "longitude_deg": -0.4456628883052283,
      "height_km": 475.9941145419797,
      "semi_major_axis_km": 6853.319273371382,
      "eccentricity": 0.000165,
      "inclination_deg": 53.16,
      "raan_deg": 65.7854,
      "arg_perigee_deg": 85.6526,
      "mean_anomaly_deg": 274.4663,
      "mean_motion_rev_day": 15.30210984
    },
    {
      "epoch": "2026-04-01T15:19:34.480128Z",
      "apogee_km": 476.1279703009477,
      "perigee_km": 474.13641027425,
      "latitude_deg": -1.8552940879175706e-05,
      "longitude_deg": 1.3415804659437611,
      "height_km": 476.04409805059464,
      "semi_major_axis_km": 6853.269190287599,
      "eccentricity": 0.0001453,
      "inclination_deg": 53.1607,
      "raan_deg": 61.234,
      "arg_perigee_deg": 90.8054,
      "mean_anomaly_deg": 269.3113,
      "mean_motion_rev_day": 15.30227758
    },
    {
      "epoch": "2026-04-02T21:06:35.566848Z",
      "apogee_km": 476.44080431244583,
      "perigee_km": 473.7968182204586,
      "latitude_deg": 3.226485712843589e-05,
      "longitude_deg": -92.40047904844442,
      "height_km": 476.0739754077122,
      "semi_major_axis_km": 6853.255811266452,
      "eccentricity": 0.0001929,
      "inclination_deg": 53.1611,
      "raan_deg": 55.4696,
      "arg_perigee_deg": 92.51,
      "mean_anomaly_deg": 267.6122,
      "mean_motion_rev_day": 15.30232239
    },
    {
      "epoch": "2026-04-02T21:06:35.567712Z",
      "apogee_km": 476.44066426103836,
      "perigee_km": 473.7969523004367,
      "latitude_deg": 3.4105114844571346e-05,
      "longitude_deg": -92.40048128728367,
      "height_km": 476.0739664205129,
      "semi_major_axis_km": 6853.255808280737,
      "eccentricity": 0.00019288,
      "inclination_deg": 53.1611,
      "raan_deg": 55.4696,
      "arg_perigee_deg": 92.51,
      "mean_anomaly_deg": 267.6122,
      "mean_motion_rev_day": 15.3023224
    },
    {
      "epoch": "2026-04-03T14:21:13.032864Z",
      "apogee_km": 476.53094219403647,
      "perigee_km": 474.3131304898752,
      "latitude_deg": -6.139648331871264e-05,
      "longitude_deg": 4.899367551646438,
      "height_km": 476.4554406416222,
      "semi_major_axis_km": 6853.559036341955,
      "eccentricity": 0.0001618,
      "inclination_deg": 53.1615,
      "raan_deg": 52.1338,
      "arg_perigee_deg": 97.0268,
      "mean_anomaly_deg": 263.0916,
      "mean_motion_rev_day": 15.30130686
    },
    {
      "epoch": "2026-04-04T13:52:00.225696Z",
      "apogee_km": 476.0660423256986,
      "perigee_km": 474.0895751748549,
      "latitude_deg": 1.5322212018242662e-06,
      "longitude_deg": 6.685827975572128,
      "height_km": 475.9645881647966,
      "semi_major_axis_km": 6853.2148087502765,
      "eccentricity": 0.0001442,
      "inclination_deg": 53.161,
      "raan_deg": 47.5825,
      "arg_perigee_deg": 89.3516,
      "mean_anomaly_deg": 270.765,
      "mean_motion_rev_day": 15.30245972
    },
    {
      "epoch": "2026-04-05T13:22:47.417664Z",
      "apogee_km": 476.1060870308129,
      "perigee_km": 474.292420124666,
      "latitude_deg": 6.023767620407117e-06,
      "longitude_deg": 8.474947653248122,
      "height_km": 475.8374403268771,
      "semi_major_axis_km": 6853.336253577739,
      "eccentricity": 0.00013232,
      "inclination_deg": 53.1605,
      "raan_deg": 43.0339,
      "arg_perigee_deg": 73.342,
      "mean_anomaly_deg": 286.7726,
      "mean_motion_rev_day": 15.30205297
    }
  ]
}